NORAD_CAT_ID,OBJECT_NAME,OBJECT_TYPE,EPOCH,MEAN_MOTION,ECCENTRICITY,INCLINATION,RA_OF_ASC_NODE,ARG_OF_PERICENTER,MEAN_ANOMALY,BSTAR,MEAN_MOTION_DOT,MEAN_MOTION_DDOT,TLE_LINE0,TLE_LINE1,TLE_LINE2,SEMIMAJOR_AXIS,PERIOD,APOGEE,PERIGEE,DECAYED
50187.0,STARLINK-3272,PAYLOAD,2022-09-23 12:23:47,15.08828137,0.0001913,53.2161,149.7207,47.1335,312.9817,9.7809e-05,1.268e-05,0.0,0 STARLINK-3272,1 50187U 21125AH  22266.51652025  .00001268  00000-0  97809-4 0  9990,2 50187  53.2161 149.7207 0001913  47.1335 312.9817 15.08828137 46024,6917.917,95.438,541.105,538.4580000000002,0.0
50187.0,STARLINK-3272,PAYLOAD,2022-09-23 20:20:42,15.08836025,0.0001905,53.2161,148.2338,48.4911,311.6245,0.00017956,2.57e-05,0.0,0 STARLINK-3272,1 50187U 21125AH  22266.84771752  .00002570  00000-0  17956-3 0  9996,2 50187  53.2161 148.2338 0001905  48.4911 311.6245 15.08836025 46079,6917.893,95.438,541.075,538.44,0.0
50187.0,STARLINK-3272,PAYLOAD,2022-09-24 02:42:15,15.08845915,0.0001891,53.2156,147.0448,49.3757,310.7399,0.00032167,4.836e-05,0.0,0 STARLINK-3272,1 50187U 21125AH  22267.11267448  .00004836  00000-0  32167-3 0  9997,2 50187  53.2156 147.0448 0001891  49.3757 310.7399 15.08845915 43035,6917.861999999999,95.437,541.035,538.419,0.0
50187.0,STARLINK-3272,PAYLOAD,2022-09-24 12:14:33,15.08858605,0.0001837,53.2153,145.2609,49.5333,310.5819,0.00070633,0.00010977,0.0,0 STARLINK-3272,1 50187U 21125AH  22267.51011098  .00010977  00000-0  70633-3 0  9992,2 50187  53.2153 145.2609 0001837  49.5333 310.5819 15.08858605 46176,6917.824000000001,95.436,540.9590000000002,538.418,0.0
50187.0,STARLINK-3272,PAYLOAD,2022-09-24 20:11:28,15.08869061,0.0001854,53.2151,143.7742,49.7852,310.3302,0.00097825,0.00015328,0.0,0 STARLINK-3272,1 50187U 21125AH  22267.84130614  .00015328  00000-0  97825-3 0  9991,2 50187  53.2151 143.7742 0001854  49.7852 310.3302 15.08869061 43149,6917.792,95.436,540.939,538.374,0.0
50187.0,STARLINK-3272,PAYLOAD,2022-09-25 04:08:24,15.08856367,0.0001953,53.2149,142.2872,51.198,308.9186,0.00021042,3.064e-05,0.0,0 STARLINK-3272,1 50187U 21125AH  22268.17250439  .00003064  00000-0  21042-3 0  9998,2 50187  53.2149 142.2872 0001953  51.1980 308.9186 15.08856367 43196,6917.83,95.437,541.0459999999998,538.344,0.0
50187.0,STARLINK-3272,PAYLOAD,2022-09-25 12:05:20,15.08847266,0.0001906999999999,53.2149,140.8003,52.7726,307.344,-2.4422e-05,-6.77e-06,0.0,0 STARLINK-3272,1 50187U 21125AH  22268.50370458 -.00000677  00000-0 -24422-4 0  9994,2 50187  53.2149 140.8003 0001907  52.7726 307.3440 15.08847266 43240,6917.858,95.437,541.0419999999998,538.404,0.0
50187.0,STARLINK-3272,PAYLOAD,2022-09-25 20:02:16,15.08840021,0.0001909,53.2162,139.3129,51.7602,308.3562,7.0063e-05,8.27e-06,0.0,0 STARLINK-3272,1 50187U 21125AH  22268.83491104  .00000827  00000-0  70063-4 0  9999,2 50187  53.2162 139.3129 0001909  51.7602 308.3562 15.08840021 43294,6917.88,95.438,541.066,538.425,0.0
50187.0,STARLINK-3272,PAYLOAD,2022-09-26 08:45:22,15.08832186,0.0001905,53.2161,136.9337,52.0359,308.0805,-7.223e-05,-1.437e-05,0.0,0 STARLINK-3272,1 50187U 21125AH  22269.36483956 -.00001437  00000-0 -72230-4 0  9992,2 50187  53.2161 136.9337 0001905  52.0359 308.0805 15.08832186 43375,6917.904,95.438,541.087,538.451,0.0
50187.0,STARLINK-3272,PAYLOAD,2022-09-26 13:31:31,15.08837219,0.0001872,53.2161,136.0416,51.23,308.886,-6.57e-05,-1.334e-05,0.0,0 STARLINK-3272,1 50187U 21125AH  22269.56355620 -.00001334  00000-0 -65700-4 0  9990,2 50187  53.2161 136.0416 0001872  51.2300 308.8860 15.08837219 46480,6917.889,95.438,541.049,538.4590000000002,0.0
50187.0,STARLINK-3272,PAYLOAD,2022-09-26 18:17:40,15.08836802,0.0001872,53.2161,135.1495,66.0711,294.0477,-2.8576e-05,-7.43e-06,0.0,0 STARLINK-3272,1 50187U 21125AH  22269.76227516 -.00000743  00000-0 -28576-4 0  9997,2 50187  53.2161 135.1495 0001872  66.0711 294.0477 15.08836802 43436,6917.89,95.438,541.05,538.46,0.0
50187.0,STARLINK-3272,PAYLOAD,2022-09-26 21:28:26,15.08838092,0.0001853,53.2161,134.5547,65.7903,294.3283,-2.7242e-05,-7.22e-06,0.0,0 STARLINK-3272,1 50187U 21125AH  22269.89475435 -.00000722  00000-0 -27242-4 0  9992,2 50187  53.2161 134.5547 0001853  65.7903 294.3283 15.08838092 46530,6917.886,95.438,541.033,538.469,0.0
50187.0,STARLINK-3272,PAYLOAD,2022-09-27 08:36:08,15.08842755,0.0001948,53.2162,132.4731,53.7732,306.344,4.9332e-05,4.97e-06,0.0,0 STARLINK-3272,1 50187U 21125AH  22270.35842883  .00000497  00000-0  49332-4 0  9991,2 50187  53.2162 132.4731 0001948  53.7732 306.3440 15.08842755 43521,6917.871999999999,95.437,541.085,538.389,0.0
50187.0,STARLINK-3272,PAYLOAD,2022-09-27 13:22:17,15.0885517,0.0001931,53.2161,131.5809,50.9319,309.1844,-8.7869e-05,-1.687e-05,0.0,0 STARLINK-3272,1 50187U 21125AH  22270.55714329 -.00001687  00000-0 -87869-4 0  9997,2 50187  53.2161 131.5809 0001931  50.9319 309.1844 15.08855170 46637,6917.834,95.437,541.035,538.363,0.0
50187.0,STARLINK-3272,PAYLOAD,2022-09-27 19:43:49,15.08847947,0.0001975,53.2161,130.3915,52.177,307.94,0.00019437,2.807e-05,0.0,0 STARLINK-3272,1 50187U 21125AH  22270.82210200  .00002807  00000-0  19437-3 0  9994,2 50187  53.2161 130.3915 0001975  52.1770 307.9400 15.08847947 46676,6917.856,95.437,541.087,538.355,0.0
50187.0,STARLINK-3272,PAYLOAD,2022-09-28 02:05:23,15.08836346,0.000199,53.2161,129.2026,51.6307,308.4863,6.9389e-05,8.16e-06,0.0,0 STARLINK-3272,1 50187U 21125AH  22271.08707474  .00000816  00000-0  69389-4 0  9997,2 50187  53.2161 129.2026 0001990  51.6307 308.4863 15.08836346 43636,6917.892,95.438,541.133,538.38,0.0
50187.0,STARLINK-3272,PAYLOAD,2022-09-28 19:34:37,15.08845303,0.0001981,53.215,125.9315,50.6892,309.4276,0.00021027,3.06e-05,0.0,0 STARLINK-3272,1 50187U 21125AH  22271.81571095  .00003060  00000-0  21027-3 0  9996,2 50187  53.2150 125.9315 0001981  50.6892 309.4276 15.08845303 46822,6917.864000000001,95.437,541.1,538.359,0.0
50187.0,STARLINK-3272,PAYLOAD,2022-09-28 22:45:23,15.08847559,0.0001955999999999,53.2151,125.3364,51.0595,309.0571,0.00022382,3.276e-05,0.0,0 STARLINK-3272,1 50187U 21125AH  22271.94818950  .00003276  00000-0  22382-3 0  9998,2 50187  53.2151 125.3364 0001956  51.0595 309.0571 15.08847559 43767,6917.857,95.437,541.075,538.369,0.0
50187.0,STARLINK-3272,PAYLOAD,2022-09-29 09:53:06,15.08823388,0.0001963,53.215,123.2549,53.1078,307.0094,0.00014376,2e-05,0.0,0 STARLINK-3272,1 50187U 21125AH  22272.41188490  .00002000  00000-0  14376-3 0  9998,2 50187  53.2150 123.2549 0001963  53.1078 307.0094 15.08823388 43835,6917.931,95.439,541.154,538.438,0.0
50187.0,STARLINK-3272,PAYLOAD,2022-09-29 21:00:48,15.08828331,0.0001679,53.2151,121.173,52.0381,308.0763,-0.00015399,-2.737e-05,0.0,0 STARLINK-3272,1 50187U 21125AH  22272.87556358 -.00002737  00000-0 -15399-3 0  9995,2 50187  53.2151 121.1730 0001679  52.0381 308.0763 15.08828331 46980,6917.916,95.438,540.943,538.62,0.0
50187.0,STARLINK-3272,PAYLOAD,2022-09-30 12:54:40,15.08832521,0.0001808,53.2151,118.1993,48.3115,311.8031,9.0467e-05,1.152e-05,0.0,0 STARLINK-3272,1 50187U 21125AH  22273.53796780  .00001152  00000-0  90467-4 0  9992,2 50187  53.2151 118.1993 0001808  48.3115 311.8031 15.08832521 47082,6917.903,95.438,541.019,538.5169999999998,0.0
50187.0,STARLINK-3272,PAYLOAD,2022-09-30 14:30:03,15.0883568,0.0001810999999999,53.2151,117.9022,49.31800000000001,310.7969,0.0001041,1.369e-05,0.0,0 STARLINK-3272,1 50187U 21125AH  22273.60420682  .00001369  00000-0  10410-3 0  9994,2 50187  53.2151 117.9022 0001811  49.3180 310.7969 15.08835680 44016,6917.894,95.438,541.011,538.506,0.0
50187.0,STARLINK-3272,PAYLOAD,2022-09-30 20:51:36,15.08839493,0.0001823,53.2152,116.7127,48.8298,311.2851,0.00017491,2.497e-05,0.0,0 STARLINK-3272,1 50187U 21125AH  22273.86916677  .00002497  00000-0  17491-3 0  9995,2 50187  53.2152 116.7127 0001823  48.8298 311.2851 15.08839493 47135,6917.882,95.438,541.008,538.486,0.0
50187.0,STARLINK-3272,PAYLOAD,2022-10-01 12:45:27,15.08852289,0.0001831999999999,53.2147,113.7388,47.8499,312.2649,0.00060762,9.399e-05,0.0,0 STARLINK-3272,1 50187U 21125AH  22274.53156684  .00009399  00000-0  60762-3 0  9991,2 50187  53.2147 113.7388 0001832  47.8499 312.2649 15.08852289 47232,6917.843000000003,95.437,540.975,538.44,0.0
50187.0,STARLINK-3272,PAYLOAD,2022-10-01 19:06:59,15.08860479,0.0001809,53.2148,112.5494,47.8798,312.2347,0.0006911,0.00010734,0.0,0 STARLINK-3272,1 50187U 21125AH  22274.79652318  .00010734  00000-0  69110-3 0  9995,2 50187  53.2148 112.5494 0001809  47.8798 312.2347 15.08860479 44191,6917.818,95.436,540.934,538.431,0.0
50187.0,STARLINK-3272,PAYLOAD,2022-10-01 20:42:22,15.08862425,0.0001809,53.2148,112.2521,47.7284,312.3861,0.00072382,0.00011257,0.0,0 STARLINK-3272,1 50187U 21125AH  22274.86276218  .00011257  00000-0  72382-3 0  9990,2 50187  53.2148 112.2521 0001809  47.7284 312.3861 15.08862425 47286,6917.812,95.436,540.928,538.425,0.0
50187.0,STARLINK-3272,PAYLOAD,2022-10-02 11:00:50,15.08846649,0.0001841999999999,53.2149,109.5758,46.4382,313.6763,0.00013147,1.805e-05,0.0,0 STARLINK-3272,1 50187U 21125AH  22275.45892297  .00001805  00000-0  13147-3 0  9999,2 50187  53.2149 109.5758 0001842  46.4382 313.6763 15.08846649 47375,6917.86,95.437,540.999,538.451,0.0
50187.0,STARLINK-3272,PAYLOAD,2022-10-02 20:33:09,15.08839821,0.0001851999999999,53.2149,107.7913,48.7303,311.3848,-1.3631e-05,-5.05e-06,0.0,0 STARLINK-3272,1 50187U 21125AH  22275.85636441 -.00000505  00000-0 -13631-4 0  9997,2 50187  53.2149 107.7913 0001852  48.7303 311.3848 15.08839821 47437,6917.880999999999,95.438,541.0269999999998,538.465,0.0
50187.0,STARLINK-3272,PAYLOAD,2022-10-03 06:05:28,15.08845562,0.0001862,53.215,106.0072,48.7596,311.3556,0.00031272,4.693e-05,0.0,0 STARLINK-3272,1 50187U 21125AH  22276.25380403  .00004693  00000-0  31272-3 0  9996,2 50187  53.2150 106.0072 0001862  48.7596 311.3556 15.08845562 47493,6917.863,95.437,541.016,538.44,0.0
